{
    "links": {
        "self": "http://www.neowsapp.com/rest/v1/neo/3727277?api_key=iIulBulltgU6a56xZRHN4H3l9WmuAYTsLGpBGhQ2"
    },
    "id": "3727277",
    "neo_reference_id": "3727277",
    "name": "(2015 RJ37)",
    "designation": "2015 RJ37",
    "nasa_jpl_url": "http://ssd.jpl.nasa.gov/sbdb.cgi?sstr=3727277",
    "absolute_magnitude_h": 24.0,
    "estimated_diameter": {
        "kilometers": {
            "estimated_diameter_min": 0.0421264611,
            "estimated_diameter_max": 0.0941976306
        },
        "meters": {
            "estimated_diameter_min": 42.1264610556,
            "estimated_diameter_max": 94.1976305719
        },
        "miles": {
            "estimated_diameter_min": 0.0261761612,
            "estimated_diameter_max": 0.0585316759
        },
        "feet": {
            "estimated_diameter_min": 138.2101784897,
            "estimated_diameter_max": 309.0473542854
        }
    },
    "is_potentially_hazardous_asteroid": false,
    "close_approach_data": [
        {
            "close_approach_date": "1981-10-02",
            "close_approach_date_full": "1981-Oct-02 11:01",
            "epoch_date_close_approach": 370868460000,
            "relative_velocity": {
                "kilometers_per_second": "20.4754751227",
                "kilometers_per_hour": "73711.7104418716",
                "miles_per_hour": "45801.5903020618"
            },
            "miss_distance": {
                "astronomical": "0.3863606367",
                "lunar": "150.2942876763",
                "kilometers": "57798728.302163829",
                "miles": "35914464.3911216802"
            },
            "orbiting_body": "Earth"
        },
        {
            "close_approach_date": "2015-08-06",
            "close_approach_date_full": "2015-Aug-06 23:29",
            "epoch_date_close_approach": 1438903740000,
            "relative_velocity": {
                "kilometers_per_second": "7.4703174683",
                "kilometers_per_hour": "26893.1428858365",
                "miles_per_hour": "16710.3531448132"
            },
            "miss_distance": {
                "astronomical": "0.0913966165",
                "lunar": "35.5532838185",
                "kilometers": "13672739.153606855",
                "miles": "8495846.152430399"
            },
            "orbiting_body": "Earth"
        },
        {
            "close_approach_date": "2017-04-27",
            "close_approach_date_full": "2017-Apr-27 22:51",
            "epoch_date_close_approach": 1493333460000,
            "relative_velocity": {
                "kilometers_per_second": "22.3417195264",
                "kilometers_per_hour": "80430.190295053",
                "miles_per_hour": "49976.1924086122"
            },
            "miss_distance": {
                "astronomical": "0.4502482109",
                "lunar": "175.1465540401",
                "kilometers": "67356173.321950783",
                "miles": "41853185.3442674854"
            },
            "orbiting_body": "Earth"
        }
    ],
    "orbital_data": {
        "orbit_id": "11",
        "orbit_determination_date": "2017-04-06 08:32:01",
        "first_observation_date": "2015-09-12",
        "last_observation_date": "2015-10-15",
        "data_arc_in_days": 33,
        "observations_used": 34,
        "orbit_uncertainty": "7",
        "minimum_orbit_intersection": ".0116888",
        "jupiter_tisserand_invariant": "4.403",
        "epoch_osculation": "2459000.5",
        "eccentricity": ".3994103282822546",
        "semi_major_axis": "1.525759491098075",
        "inclination": "2.141126297655856",
        "ascending_node_longitude": "85.51212848149318",
        "orbital_period": "688.3788955320229",
        "perihelion_distance": ".9163553918788271",
        "perihelion_argument": "210.1252184872101",
        "aphelion_distance": "2.135163590317323",
        "perihelion_time": "2459291.078602166042",
        "mean_anomaly": "208.0367462472435",
        "mean_motion": ".5229678049931632",
        "equinox": "J2000",
        "orbit_class": {
            "orbit_class_type": "APO",
            "orbit_class_description": "Near-Earth asteroid orbits which cross the Earth’s orbit similar to that of 1862 Apollo",
            "orbit_class_range": "a (semi-major axis) > 1.0 AU; q (perihelion) < 1.017 AU"
        }
    },
    "is_sentry_object": false
}